{"type": "FeatureCollection", "features": [ {"type": "Feature", "properties": {"norad_id": 31463, "name": "FENGYUN 1C DEB", "group": "fengyun-1c-debris", "lat": 66.35805013782074, "lon": 159.97055422429426, "alt_km": 651.9344714148083, "timestamp": "2025-12-03T08:58:46.284270+00:00", "meta": {"OBJECT_NAME": "FENGYUN 1C DEB", "OBJECT_ID": "1999-025BVB", "EPOCH": "2025-12-01T16:22:11.548704", "MEAN_MOTION": 14.36878903, "ECCENTRICITY": 0.02141373, "INCLINATION": 99.0794, "RA_OF_ASC_NODE": 316.76, "ARG_OF_PERICENTER": 72.118, "MEAN_ANOMALY": 290.3231, "EPHEMERIS_TYPE": 0, "CLASSIFICATION_TYPE": "U", "NORAD_CAT_ID": 31463, "ELEMENT_SET_NO": 999, "REV_AT_EPOCH": 64561, "BSTAR": 0.00046325906, "MEAN_MOTION_DOT": 1.728e-05, "MEAN_MOTION_DDOT": 0}, "tle": {"line1": "1 31463U 99025BVB 25335.68207811  .00001728  00000+0  46326-3 0  9994", "line2": "2 31463  99.0794 316.7600 0214137  72.1180 290.3231 14.36878903645618"}}, "geometry": {"type": "Point", "coordinates": [159.97055422429426, 66.35805013782074]}}, {"type": "Feature", "properties": {"norad_id": 31464, "name": "FENGYUN 1C DEB", "group": "fengyun-1c-debris", "lat": -11.459975648194494, "lon": -157.46755524163774, "alt_km": 848.6008626010271, "timestamp": "2025-12-03T08:58:46.284281+00:00", "meta": {"OBJECT_NAME": "FENGYUN 1C DEB", "OBJECT_ID": "1999-025BVC", "EPOCH": "2025-12-02T22:27:53.151840", "MEAN_MOTION": 14.12457967, "ECCENTRICITY": 0.0042943, "INCLINATION": 98.7961, "RA_OF_ASC_NODE": 23.9012, "ARG_OF_PERICENTER": 270.6207, "MEAN_ANOMALY": 214.8358, "EPHEMERIS_TYPE": 0, "CLASSIFICATION_TYPE": "U", "NORAD_CAT_ID": 31464, "ELEMENT_SET_NO": 999, "REV_AT_EPOCH": 94541, "BSTAR": 0.00040164, "MEAN_MOTION_DOT": 7.04e-06, "MEAN_MOTION_DDOT": 0}, "tle": {"line1": "1 31464U 99025BVC 25336.93603185  .00000704  00000+0  40164-3 0  9995", "line2": "2 31464  98.7961  23.9012 0042943 270.6207 214.8358 14.12457967945413"}}, "geometry": {"type": "Point", "coordinates": [-157.46755524163774, -11.459975648194494]}}, {"type": "Feature", "properties": {"norad_id": 31466, "name": "FENGYUN 1C DEB", "group": "fengyun-1c-debris", "lat": -56.92598268458957, "lon": 72.85966935307879, "alt_km": 859.5570861518418, "timestamp": "2025-12-03T08:58:46.284293+00:00", "meta": {"OBJECT_NAME": "FENGYUN 1C DEB", "OBJECT_ID": "1999-025BVE", "EPOCH": "2025-12-03T01:04:01.230816", "MEAN_MOTION": 14.18491736, "ECCENTRICITY": 0.0299692, "INCLINATION": 99.0852, "RA_OF_ASC_NODE": 266.7448, "ARG_OF_PERICENTER": 336.5012, "MEAN_ANOMALY": 22.2703, "EPHEMERIS_TYPE": 0, "CLASSIFICATION_TYPE": "U", "NORAD_CAT_ID": 31466, "ELEMENT_SET_NO": 999, "REV_AT_EPOCH": 96191, "BSTAR": 0.00038951, "MEAN_MOTION_DOT": 1.201e-05, "MEAN_MOTION_DDOT": 0}, "tle": {"line1": "1 31466U 99025BVE 25337.04445869  .00001201  00000+0  38951-3 0  9997", "line2": "2 31466  99.0852 266.7448 0299692 336.5012  22.2703 14.18491736961915"}}, "geometry": {"type": "Point", "coordinates": [72.85966935307879, -56.92598268458957]}}, {"type": "Feature", "properties": {"norad_id": 31468, "name": "FENGYUN 1C DEB", "group": "fengyun-1c-debris", "lat": 79.48258434468622, "lon": -155.5101893011469, "alt_km": 745.8096059012732, "timestamp": "2025-12-03T08:58:46.284304+00:00", "meta": {"OBJECT_NAME": "FENGYUN 1C DEB", "OBJECT_ID": "1999-025BVG", "EPOCH": "2025-11-30T05:49:01.308864", "MEAN_MOTION": 14.46528852, "ECCENTRICITY": 0.01658761, "INCLINATION": 98.1681, "RA_OF_ASC_NODE": 330.7879, "ARG_OF_PERICENTER": 205.029, "MEAN_ANOMALY": 154.2795, "EPHEMERIS_TYPE": 0, "CLASSIFICATION_TYPE": "U", "NORAD_CAT_ID": 31468, "ELEMENT_SET_NO": 999, "REV_AT_EPOCH": 67191, "BSTAR": 0.00042897365, "MEAN_MOTION_DOT": 1.784e-05, "MEAN_MOTION_DDOT": 0}, "tle": {"line1": "1 31468U 99025BVG 25334.24237626  .00001784  00000+0  42897-3 0  9998", "line2": "2 31468  98.1681 330.7879 0165876 205.0290 154.2795 14.46528852671917"}}, "geometry": {"type": "Point", "coordinates": [-155.5101893011469, 79.48258434468622]}}, {"type": "Feature", "properties": {"norad_id": 31473, "name": "FENGYUN 1C DEB", "group": "fengyun-1c-debris", "lat": 80.43494354317771, "lon": -106.20146777437411, "alt_km": 756.0517641473789, "timestamp": "2025-12-03T08:58:46.284314+00:00", "meta": {"OBJECT_NAME": "FENGYUN 1C DEB", "OBJECT_ID": "1999-025BVM", "EPOCH": "2025-11-30T20:53:14.785728", "MEAN_MOTION": 14.296526, "ECCENTRICITY": 0.00655797, "INCLINATION": 98.5473, "RA_OF_ASC_NODE": 8.1551, "ARG_OF_PERICENTER": 49.9746, "MEAN_ANOMALY": 124.3873, "EPHEMERIS_TYPE": 0, "CLASSIFICATION_TYPE": "U", "NORAD_CAT_ID": 31473, "ELEMENT_SET_NO": 999, "REV_AT_EPOCH": 69351, "BSTAR": 0.0014064664, "MEAN_MOTION_DOT": 3.647e-05, "MEAN_MOTION_DDOT": 0}, "tle": {"line1": "1 31473U 99025BVM 25334.87031002  .00003647  00000+0  14065-2 0  9998", "line2": "2 31473  98.5473   8.1551 0065579  49.9746 124.3873 14.29652600693514"}}, "geometry": {"type": "Point", "coordinates": [-106.20146777437411, 80.43494354317771]}}, {"type": "Feature", "properties": {"norad_id": 31474, "name": "FENGYUN 1C DEB", "group": "fengyun-1c-debris", "lat": -55.0029364150498, "lon": 36.37433205773291, "alt_km": 848.4649156757087, "timestamp": "2025-12-03T08:58:46.284326+00:00", "meta": {"OBJECT_NAME": "FENGYUN 1C DEB", "OBJECT_ID": "1999-025BVN", "EPOCH": "2025-12-01T23:11:47.345280", "MEAN_MOTION": 14.10510855, "ECCENTRICITY": 0.00712384, "INCLINATION": 99.1455, "RA_OF_ASC_NODE": 21.6407, "ARG_OF_PERICENTER": 235.7586, "MEAN_ANOMALY": 123.6822, "EPHEMERIS_TYPE": 0, "CLASSIFICATION_TYPE": "U", "NORAD_CAT_ID": 31474, "ELEMENT_SET_NO": 999, "REV_AT_EPOCH": 94818, "BSTAR": 0.0015506269, "MEAN_MOTION_DOT": 2.781e-05, "MEAN_MOTION_DDOT": 0}, "tle": {"line1": "1 31474U 99025BVN 25335.96652020  .00002781  00000+0  15506-2 0  9998", "line2": "2 31474  99.1455  21.6407 0071238 235.7586 123.6822 14.10510855948185"}}, "geometry": {"type": "Point", "coordinates": [36.37433205773291, -55.0029364150498]}}, {"type": "Feature", "properties": {"norad_id": 31475, "name": "FENGYUN 1C DEB", "group": "fengyun-1c-debris", "lat": 45.74623552242831, "lon": -143.61666072021822, "alt_km": 752.5115685922674, "timestamp": "2025-12-03T08:58:46.284337+00:00", "meta": {"OBJECT_NAME": "FENGYUN 1C DEB", "OBJECT_ID": "1999-025BVP", "EPOCH": "2025-11-29T22:56:22.522272", "MEAN_MOTION": 14.38113046, "ECCENTRICITY": 0.02113237, "INCLINATION": 98.9391, "RA_OF_ASC_NODE": 222.1219, "ARG_OF_PERICENTER": 144.7347, "MEAN_ANOMALY": 216.8032, "EPHEMERIS_TYPE": 0, "CLASSIFICATION_TYPE": "U", "NORAD_CAT_ID": 31475, "ELEMENT_SET_NO": 999, "REV_AT_EPOCH": 95895, "BSTAR": 0.00065156651, "MEAN_MOTION_DOT": 2.506e-05, "MEAN_MOTION_DDOT": 0}, "tle": {"line1": "1 31475U 99025BVP 25333.95581623  .00002506  00000+0  65157-3 0  9999", "line2": "2 31475  98.9391 222.1219 0211323 144.7347 216.8032 14.38113046958951"}}, "geometry": {"type": "Point", "coordinates": [-143.61666072021822, 45.74623552242831]}}, {"type": "Feature", "properties": {"norad_id": 31476, "name": "FENGYUN 1C DEB", "group": "fengyun-1c-debris", "lat": 26.539963987869058, "lon": 46.30199628037145, "alt_km": 855.3700966357274, "timestamp": "2025-12-03T08:58:46.284347+00:00", "meta": {"OBJECT_NAME": "FENGYUN 1C DEB", "OBJECT_ID": "1999-025BVQ", "EPOCH": "2025-12-03T03:47:09.401280", "MEAN_MOTION": 14.21990111, "ECCENTRICITY": 0.0053149, "INCLINATION": 98.8992, "RA_OF_ASC_NODE": 50.572, "ARG_OF_PERICENTER": 198.6791, "MEAN_ANOMALY": 161.2437, "EPHEMERIS_TYPE": 0, "CLASSIFICATION_TYPE": "U", "NORAD_CAT_ID": 31476, "ELEMENT_SET_NO": 999, "REV_AT_EPOCH": 95563, "BSTAR": 0.0021827, "MEAN_MOTION_DOT": 4.849e-05, "MEAN_MOTION_DDOT": 0}, "tle": {"line1": "1 31476U 99025BVQ 25337.15774770  .00004849  00000+0  21827-2 0  9990", "line2": "2 31476  98.8992  50.5720 0053149 198.6791 161.2437 14.21990111955631"}}, "geometry": {"type": "Point", "coordinates": [46.30199628037145, 26.539963987869058]}}, {"type": "Feature", "properties": {"norad_id": 31477, "name": "FENGYUN 1C DEB", "group": "fengyun-1c-debris", "lat": 55.289797644314355, "lon": -45.74818303676908, "alt_km": 797.9382466579791, "timestamp": "2025-12-03T08:58:46.284359+00:00", "meta": {"OBJECT_NAME": "FENGYUN 1C DEB", "OBJECT_ID": "1999-025BVR", "EPOCH": "2025-12-01T22:29:02.151744", "MEAN_MOTION": 14.02911571, "ECCENTRICITY": 0.0110841, "INCLINATION": 98.8842, "RA_OF_ASC_NODE": 325.8991, "ARG_OF_PERICENTER": 58.856, "MEAN_ANOMALY": 302.3421, "EPHEMERIS_TYPE": 0, "CLASSIFICATION_TYPE": "U", "NORAD_CAT_ID": 31477, "ELEMENT_SET_NO": 999, "REV_AT_EPOCH": 95252, "BSTAR": 0.00016157, "MEAN_MOTION_DOT": 2.22e-06, "MEAN_MOTION_DDOT": 0}, "tle": {"line1": "1 31477U 99025BVR 25335.93683046  .00000222  00000+0  16157-3 0  9992", "line2": "2 31477  98.8842 325.8991 0110841  58.8560 302.3421 14.02911571952526"}}, "geometry": {"type": "Point", "coordinates": [-45.74818303676908, 55.289797644314355]}}, {"type": "Feature", "properties": {"norad_id": 31480, "name": "FENGYUN 1C DEB", "group": "fengyun-1c-debris", "lat": 20.459890567262683, "lon": 12.622392399421509, "alt_km": 912.9522724083827, "timestamp": "2025-12-03T08:58:46.284370+00:00", "meta": {"OBJECT_NAME": "FENGYUN 1C DEB", "OBJECT_ID": "1999-025BVU", "EPOCH": "2025-12-03T01:16:02.255232", "MEAN_MOTION": 13.89712838, "ECCENTRICITY": 0.034659, "INCLINATION": 98.3377, "RA_OF_ASC_NODE": 189.1974, "ARG_OF_PERICENTER": 248.3313, "MEAN_ANOMALY": 108.0609, "EPHEMERIS_TYPE": 0, "CLASSIFICATION_TYPE": "U", "NORAD_CAT_ID": 31480, "ELEMENT_SET_NO": 999, "REV_AT_EPOCH": 93261, "BSTAR": 0.0047377, "MEAN_MOTION_DOT": 9.4e-05, "MEAN_MOTION_DDOT": 0}, "tle": {"line1": "1 31480U 99025BVU 25337.05280388  .00009400  00000+0  47377-2 0  9997", "line2": "2 31480  98.3377 189.1974 0346590 248.3313 108.0609 13.89712838932610"}}, "geometry": {"type": "Point", "coordinates": [12.622392399421509, 20.459890567262683]}}]}